TOMORROW-S1             
1 60479U 24149M   26068.72470524  .00008620  00000+0  28856-3 0  9996
2 60479  97.3791 149.6044 0001819 207.2040 152.9106 15.31198362 86867
STARLINK-35798          
1 66292U 25247AD  26068.59673868  .00024982  00000+0  85285-3 0  9994
2 66292  53.1600 191.5694 0000811  69.5956 290.5132 15.30196420 21014
